full_name,a,e,i,om,w,q,ad,per_y,data_arc,condition_code,diameter,H
"  9179 Satchmo (1991 EM1)",2.982652902540492,.1152410513520817,11.07536450490735,165.3225269720862,193.8921270958454,2.638928846233388,3.326376958847596,5.15124584348598,24464,0,8.937,13.0
" 14658 (1999 AC10)",2.982847638306697,.08907138984920472,8.964513773217512,278.4603208780341,39.84633744088459,2.717161253454301,3.248534023159093,5.15175033472867,9659,0,10.461,12.8
"  4854 Edscott (1981 ED27)",2.982870560250584,.06338836251139211,10.67930724690647,174.5548384920173,61.90072446740677,2.793791279852861,3.171949840648307,5.15180971843173,23572,0,10.113,12.8
" 14702 Benclark (2000 AY242)",2.983098369991513,.09942041336043021,10.06833434552828,199.4214758181493,108.990071570359,2.686517496952131,3.279679243030894,5.15239991577099,10406,0,8.962,13.0
" 14192 (1998 XA33)",2.983262909224525,.1138756368857962,9.745381524037303,359.3346178283155,22.91683574228251,2.643541945438809,3.322983873010241,5.15282620926615,12705,0,8.497,12.9
"  4235 Tatishchev (1978 SL5)",2.983265845695955,.03531980394456099,1.218595194896422,331.3256152826142,299.9255531571461,2.877897480911469,3.088634210480441,5.15283381727681,19594,0,10.478,12.1
" 24100 (1999 VH8)",2.983417708476307,.04348598341554077,10.87690645155741,118.4392001897561,85.38446304265811,2.853680855483876,3.113154561468738,5.15322727883998,7653,0,8.548,13.0
" 11971 (1994 UJ2)",2.983579965133831,.1502097536416018,14.02688747911319,55.57780732170209,327.4653848506986,2.535417153601059,3.431742776666602,5.15364768098477,17791,0,11.164,12.6
" 18936 (2000 QA42)",2.98378861063342,.07224993217852793,9.839479687517782,333.3713280426219,275.1151652025798,2.768210085880092,3.199367135386749,5.15418829203248,9984,0,8.526,13.0
"  7611 Hashitatsu (1996 BW1)",2.984265281261254,.1541973095255824,8.491819179150053,109.2442790672779,169.9295271090065,2.524099603980163,3.444430958542344,5.15542344066886,14598,0,23.740,12.1
" 18481 (1995 YH)",2.984335441596002,.1298312730406368,8.832619204940427,252.3200326540739,92.01735263420905,2.596875372033302,3.371795511158702,5.15560524841358,8136,0,11.152,12.6
" 32937 (1995 TT)",2.984523479348124,.1197317036185521,10.61635392973438,28.69869820311581,321.9293945947291,2.627181398676205,3.341865560020044,5.15609252458178,8183,0,9.876,12.8
"  8502 Bauhaus (1990 TR12)",2.984530944159441,.1066127029336644,9.476878637801605,240.023586692866,84.1284603221344,2.666342033213442,3.30271985510544,5.15611186901758,11757,0,9.566,12.7
" 14647 (1998 XG48)",2.984669104216815,.1334887151358188,11.55006717309305,66.73687468105943,312.476326669344,2.586249460389336,3.383088748044293,5.15646990364806,15125,0,9.848,12.6
" 10412 Tsukuyomi (1997 YO4)",2.984770228835123,.05925196321761537,11.20665400187168,64.50791862896013,68.05238005983713,2.80791673302315,3.161623724647095,5.15673196810952,14659,0,9.804,12.7
"  9806 (1997 NR6)",2.984779884071777,.109218183491692,11.40684608393,125.5432573186128,231.4461340935081,2.658787647010914,3.31077212113264,5.15675698988874,9115,0,10.041,12.9
" 10143 Kamogawa (1994 AP1)",2.985042350112719,.217489692527191,19.49513482469169,316.7025628749892,192.0149953030161,2.33582640720606,3.634258293019378,5.15743719248209,8722,0,22.314,12.4
" 22796 (1999 NH18)",2.985110291872063,.06741974061814898,9.62686233060893,322.3309726890828,314.416016779271,2.783854930277482,3.186365653466644,5.1576132740796,9523,0,8.801,12.9
" 17683 Kanagawa (1997 AR16)",2.985146377574091,.1589114272845991,18.29361617193486,358.7294647219659,194.6615472911592,2.510772506060341,3.45952024908784,5.15770679658298,7718,0,16.818,12.7
" 56324 (1999 VY175)",2.985309473992186,.1266187963726875,10.75443516190449,65.99500298005344,265.6254312298239,2.607313181595315,3.363305766389057,5.15812949695724,22954,0,,13.0
" 19932 (1981 EU4)",2.985346977262667,.07320109518424761,9.017824925841362,261.0824240340313,25.86972902908481,2.766816309022056,3.203877645503278,5.15822669659513,13302,0,10.791,12.5
" 55183 (2001 QK284)",2.98565616163319,.1119412351265971,11.50107400980027,126.1276340891838,223.8210227437285,2.651438123236636,3.319874200029744,5.15902805287584,7308,0,9.212,12.9
" 18674 (1998 FG69)",2.986053916535987,.1153086926601626,10.2238199182747,196.1423029571621,131.890985487006,2.641735943207464,3.33037188986451,5.16005903079137,23568,0,10.025,12.7
" 41316 (1999 XJ187)",2.986100764380344,.1101918480200613,11.7142458630814,64.16124367408203,254.6619936575559,2.657056802779156,3.315144725981532,5.16018046459527,6855,0,9.087,13.0
" 13118 La Harpe (1993 UX4)",2.986228988832993,.07697458935321948,11.55028310605513,71.89324817513811,196.1819004062177,2.756365238702894,3.216092738963092,5.16051283871999,14122,0,9.043,12.9
" 11222 (1999 JR27)",2.986263098461091,.1169650330124399,9.786164518132818,213.1578446056634,156.9651121158634,2.636974736565759,3.335551460356423,5.16060125642525,15422,0,,13.0
" 12384 Luigimartella (1994 TC2)",2.986297288380931,.09713092377633127,9.866568859893851,322.6115739115417,348.0682251162092,2.696235474089738,3.276359102672124,5.1606898827665,18105,0,9.427,12.9
" 29216 (1991 VX5)",2.986424464747897,.0421498973512345,10.86756844034607,86.80966754300198,81.24463306553068,2.860546980111557,3.112301949384236,5.16101955093807,9643,0,10.415,12.7
"  8570 (1996 TN10)",2.986535426077744,.09678769691675831,9.596100389566269,359.2891185481717,65.37099230202998,2.69747554042737,3.275595311728118,5.16130719202137,13689,0,,12.5
" 12583 Buckjean (1999 RC35)",2.986576135233822,.06755049546623908,10.86362105918234,26.71560745332636,16.23717213280916,2.784831437551132,3.188320832916512,5.16141272224925,21655,0,25.76,12.4
" 31816 (1999 RZ117)",2.986749316537605,.07486726969886222,9.794501045522111,285.4904289046018,345.5146232880192,2.763139549933491,3.210359083141718,5.16186166768139,7242,0,7.967,12.9
"  4453 Bornholm (1988 VC)",2.986771589160489,.1083156347254542,9.345429883024593,335.5567649659293,79.04013939268052,2.663257528700617,3.310285649620361,5.16191940691582,21295,0,11.079,12.4
" 18479 (1995 XR)",2.986906119900734,.04319387390238347,9.069810369663507,245.4265898109828,333.4482591225132,2.857890073599484,3.115922166201984,5.16226816709275,8141,0,8.389,12.9
" 27621 (2001 KF67)",2.986912773508247,.1483530205465666,11.9678897715733,265.8493673727671,138.8682712339332,2.543795241449176,3.430030305567318,5.16228541624153,10050,0,9.978,12.4
" 15003 Midori (1997 XC10)",2.987004414979785,.110221468477782,9.227336523209269,233.1925637572348,91.12916384343579,2.657772402011095,3.316236427948476,5.16252299418398,11489,0,9.711,12.8
" 26594 (2000 EF151)",2.987176182641525,.121888838287397,10.64828403862312,158.1543749447446,209.1449508981772,2.623072747979568,3.351279617303482,5.16296830684255,13219,0,9.367,12.8
" 14739 Edgarchavez (2000 EF21)",2.987178638854328,.1203340676509617,9.62585220507818,241.6611116241097,140.0191055802157,2.627719282440923,3.346637995267732,5.16297467473853,10854,0,10.045,12.7
" 20708 (1999 XH1)",2.987399693358008,.04856193650717285,11.1329458156635,79.69659947711561,130.8469454378489,2.842325779127609,3.132473607588407,5.16354778404482,10466,0,9.661,12.6
"  8187 Akiramisawa (1992 XL)",2.987415728802786,.122365107207995,11.60841088878855,83.06205621896613,277.5749480762314,2.621860282872983,3.352971174732589,5.16358935861047,16899,0,,12.9
" 39510 (1982 DU)",2.987425672616271,.2093887469637458,17.86567177230251,342.345394604223,143.8575620132006,2.361892354379824,3.612958990852718,5.16361513966183,13183,0,16.520,12.8
" 33228 (1998 FZ121)",2.987435393013791,.0993531274045989,10.31614365723411,166.0366645173827,169.7624488483306,2.690624343798684,3.284246442228898,5.16364034151024,7275,0,8.156,13.0
" 23101 (1999 XP164)",2.987563037291791,.1243145797773332,15.38312953819032,101.3929046613622,172.936507107295,2.616165393752569,3.358960680831014,5.16397128566313,13753,0,18.216,12.3
" 12844 (1997 JE10)",2.987688220355649,.05748698767156123,11.52523443730658,74.90496314546797,82.6354276787234,2.815935024465595,3.159441416245703,5.16429585547679,13705,0,,12.5
" 40157 (1998 QA88)",2.987718587791403,.08917020348639178,9.760326656021203,276.4144984769615,34.9690790342836,2.721303113357968,3.254134062224837,5.16437459201632,6865,0,8.387,13.0
" 23455 Fumi (1988 XY4)",2.987885103118657,.08780516150502286,10.37319753732544,65.27824831577658,300.1192725755369,2.725533369080872,3.250236837156443,5.16480633925847,10378,0,8.665,12.9
"  8850 Bignonia (1990 VQ6)",2.98797554627446,.08906846968150992,10.63748023067097,118.2792567891888,234.2924591587188,2.72184113692202,3.2541099556269,5.16504084873753,9989,0,,12.8
" 13093 Wolfgangpauli (1992 SQ24)",2.988079651410399,.0565991109622451,10.12885281217924,203.8180276929155,304.8999926695714,2.818956999656195,3.157202303164603,5.16531078667123,11021,0,11.388,12.5
"  9670 Magni (1997 NJ10)",2.988088928981592,.05020978936088936,10.30593806832892,175.1715925337732,336.857098598888,2.83805761326582,3.138120244697363,5.1653348430459,11352,0,12.582,12.4
" 18993 (2000 RB43)",2.988506665737563,.0860568671575275,7.611182309651309,267.9273739618703,121.2821849673369,2.7313251446048,3.245688186870326,5.16641805660685,14072,0,7.353,12.9
"  6116 Still (1984 UB3)",2.988578509212353,.09495969023673569,.8330677042614832,254.5205307112366,134.7877199552483,2.704784019729383,3.272372998695324,5.16660435817699,25346,0,8.925,12.4
" 10234 Sixtygarden (1997 YB8)",2.988597662558364,.07062414139478303,10.54143609443808,131.7612299303852,196.5871131701847,2.777530518665724,3.199664806451004,5.16665402623117,23223,0,9.088,12.7
"  4210 Isobelthompson (1987 DY5)",2.988773237185483,.07664957317906508,10.44024554997234,159.8998752505619,285.8141668684173,2.759685044226203,3.217861430144763,5.16710933007908,24427,0,10.280,12.5
" 36081 (1999 RG71)",2.988925884157468,.04598583402005783,9.228635185823416,353.107273112723,109.2503342295429,2.851477634550348,3.126374133764588,5.16750518831326,9991,0,8.362,13.0
